[{"OBJECT_NAME":"CENTISPACE-1 S10","OBJECT_ID":"2025-007E","EPOCH":"2026-03-09T22:40:42.082464","MEAN_MOTION":13.83771968,"ECCENTRICITY":0.00086049,"INCLINATION":54.9882,"RA_OF_ASC_NODE":278.5437,"ARG_OF_PERICENTER":284.7903,"MEAN_ANOMALY":75.2101,"EPHEMERIS_TYPE":0,"CLASSIFICATION_TYPE":"U","NORAD_CAT_ID":62579,"ELEMENT_SET_NO":999,"REV_AT_EPOCH":6102,"BSTAR":9.1606815e-5,"MEAN_MOTION_DOT":-4.0e-7,"MEAN_MOTION_DDOT":0},{"OBJECT_NAME":"PRAETORIAN SDA_609","OBJECT_ID":"2025-203H","EPOCH":"2026-03-09T13:17:17.896704","MEAN_MOTION":13.84314664,"ECCENTRICITY":0.0008251,"INCLINATION":81.302,"RA_OF_ASC_NODE":103.0603,"ARG_OF_PERICENTER":102.7158,"MEAN_ANOMALY":257.4922,"EPHEMERIS_TYPE":0,"CLASSIFICATION_TYPE":"U","NORAD_CAT_ID":65572,"ELEMENT_SET_NO":999,"REV_AT_EPOCH":2491,"BSTAR":0.00016281,"MEAN_MOTION_DOT":1.94e-6,"MEAN_MOTION_DDOT":0}]
